     2.11           N: GPS NAV DATA                         RINEX VERSION / TYPE
teqc  2018Dec12     gpsops              20220322 01:03:59UTCPGM / RUN BY / DATE
Linux 2.6.32-573.12.1.x86_64|x86_64|gcc -static|Linux 64|=+ COMMENT
CHPI                                    MARKER NAME         COMMENT
41609M003                               MARKER NUMBER       COMMENT
4164613.9484 -4162456.9866 -2445028.7316                    COMMENT
                                                            COMMENT
This data is provided as a public service by NASA/JPL.      COMMENT
No warranty is expressed or implied regarding suitability   COMMENT
for use.  For further information, contact:                 COMMENT
Dave Stowers, NASA/JPL m/s 238-600                          COMMENT
4800 Oak Grove Drive, Pasadena CA 91109 USA                 COMMENT
                                                            END OF HEADER
 9 22  3 22  0  0  0.0-3.484585322440D-04 2.160049916711D-12 0.000000000000D+00
    6.700000000000D+01-3.909375000000D+01 4.968778398136D-09-1.405775549657D+00
   -2.078711986542D-06 2.162938471884D-03 6.772577762604D-06 5.153594005585D+03
    1.728000000000D+05 5.587935447693D-09-4.734833271440D-01 2.607703208923D-08
    9.544014746066D-01 2.453125000000D+02 1.877849590762D+00-8.295345534438D-09
   -3.885876148053D-10 1.000000000000D+00 2.202000000000D+03 0.000000000000D+00
    2.000000000000D+00 0.000000000000D+00 1.396983861923D-09 6.700000000000D+01
    1.656180000000D+05 4.000000000000D+00
30 22  3 22  0  0  0.0-5.199350416660D-04-1.932676241267D-12 0.000000000000D+00
    3.600000000000D+01 4.115625000000D+01 4.705553148033D-09 1.619728162854D+00
    2.263113856316D-06 5.587711231783D-03 1.261383295059D-05 5.153804250717D+03
    1.728000000000D+05-1.173466444016D-07 6.105397332363D-01 0.000000000000D+00
    9.364036864808D-01 1.235625000000D+02-2.735206794148D+00-8.112123616796D-09
   -2.453673633927D-10 1.000000000000D+00 2.202000000000D+03 0.000000000000D+00
    2.000000000000D+00 0.000000000000D+00 3.725290298462D-09 3.600000000000D+01
    1.656180000000D+05 4.000000000000D+00
14 22  3 22  0  0  0.0-9.605754166842D-05-3.524291969370D-12 0.000000000000D+00
    1.010000000000D+02 9.687500000000D+01 4.906990110120D-09 9.816785418688D-01
    5.006790161133D-06 1.574101741426D-03 4.561617970467D-06 5.153654804230D+03
    1.728000000000D+05-1.676380634308D-08 1.679178644691D+00-2.048909664154D-08
    9.530276584788D-01 2.876875000000D+02 3.028303237397D+00-8.478210294347D-09
    3.207276453081D-10 1.000000000000D+00 2.202000000000D+03 0.000000000000D+00
    2.000000000000D+00 0.000000000000D+00-7.450580596924D-09 6.130000000000D+02
    1.656180000000D+05 4.000000000000D+00
 4 22  3 22  0  0  0.0-1.819487661123D-04 2.728484105319D-12 0.000000000000D+00
    6.200000000000D+01-4.025000000000D+01 4.701624412957D-09-2.302205353648D+00
   -2.153217792511D-06 1.747973379679D-03 7.268041372299D-06 5.153633668900D+03
    1.728000000000D+05 3.725290298462D-09-4.202576363431D-01 4.842877388000D-08
    9.614303600279D-01 2.401875000000D+02-3.013462471836D+00-8.089265521807D-09
   -4.028739241732D-10 1.000000000000D+00 2.202000000000D+03 0.000000000000D+00
    2.000000000000D+00 0.000000000000D+00-4.190951585770D-09 6.200000000000D+01
    1.656180000000D+05 4.000000000000D+00
20 22  3 22  0  0  0.0 5.161967128515D-04-2.273736754432D-13 0.000000000000D+00
    5.400000000000D+01 2.184375000000D+01 5.008422906632D-09-3.070483406621D+00
    1.007691025734D-06 5.035566748120D-03 7.703900337219D-06 5.153773427963D+03
    1.728000000000D+05-8.009374141693D-08-1.657502485106D+00-3.539025783539D-08
    9.418886579004D-01 2.203125000000D+02-3.126128572283D+00-8.237128823764D-09
    3.518003681831D-10 1.000000000000D+00 2.202000000000D+03 0.000000000000D+00
    2.000000000000D+00 0.000000000000D+00-8.381903171539D-09 5.400000000000D+01
    1.656180000000D+05 4.000000000000D+00
 8 22  3 22  0  0  0.0-6.076879799366D-05-1.477928890381D-12 0.000000000000D+00
    3.200000000000D+01-7.575000000000D+01 4.809843206419D-09-1.823888669518D+00
   -4.179775714874D-06 7.409766316414D-03 3.550201654434D-06 5.153734449387D+03
    1.728000000000D+05 1.676380634308D-08 2.666528807308D+00-1.080334186554D-07
    9.643938487719D-01 3.133437500000D+02 1.350346752505D-01-8.478924609815D-09
   -1.603638226540D-10 1.000000000000D+00 2.202000000000D+03 0.000000000000D+00
    2.000000000000D+00 0.000000000000D+00 5.122274160385D-09 3.200000000000D+01
    1.656180000000D+05 4.000000000000D+00
28 22  3 22  0  0  0.0 3.752871416509D-04-8.412825991400D-12 0.000000000000D+00
    7.400000000000D+01 8.650000000000D+01 4.609120559800D-09-1.390025941851D+00
    4.822388291359D-06 1.671147625893D-02 4.891306161880D-06 5.153691459656D+03
    1.728000000000D+05-3.650784492493D-07 1.733111387206D+00 2.384185791016D-07
    9.686907624756D-01 2.954375000000D+02-1.283257109952D+00-8.437494312648D-09
    3.503717372464D-10 1.000000000000D+00 2.202000000000D+03 0.000000000000D+00
    4.000000000000D+00 6.300000000000D+01-1.117587089539D-08 7.400000000000D+01
    1.656180000000D+05 4.000000000000D+00
 6 22  3 22  0  0  0.0 2.393554896116D-04 1.296029950026D-11 0.000000000000D+00
    9.500000000000D+01-5.943750000000D+01 3.851231847836D-09 2.516267969507D+00
   -2.810731530190D-06 2.684686682187D-03 1.087598502636D-05 5.153692962646D+03
    1.728000000000D+05 9.313225746155D-08-2.544945039130D+00 2.235174179077D-08
    9.867540439810D-01 1.831562500000D+02-9.089893448377D-01-7.636389514846D-09
    4.535903224290D-11 1.000000000000D+00 2.202000000000D+03 0.000000000000D+00
    2.800000000000D+00 0.000000000000D+00 3.725290298462D-09 9.500000000000D+01
    1.656180000000D+05 4.000000000000D+00
 3 22  3 22  0  0  0.0-1.738779246807D-04-1.648459146963D-11 0.000000000000D+00
    1.070000000000D+02 1.721875000000D+01 4.505187659149D-09 1.100811894468D+00
    9.201467037201D-07 3.946288954467D-03 7.389113306999D-06 5.153655208588D+03
    1.728000000000D+05-2.421438694000D-08-1.501915507827D+00 8.568167686462D-08
    9.726047997967D-01 2.430937500000D+02 9.453944138035D-01-8.097122991959D-09
    3.871589838686D-10 1.000000000000D+00 2.202000000000D+03 0.000000000000D+00
    2.000000000000D+00 0.000000000000D+00 1.862645149231D-09 1.070000000000D+02
    1.656180000000D+05 4.000000000000D+00
 5 22  3 22  0  0  0.0-7.551256567240D-05-1.364242052659D-12 0.000000000000D+00
    7.500000000000D+01 2.081250000000D+01 4.703053043894D-09-1.386932338247D+00
    1.098960638046D-06 5.866132094525D-03 7.154420018196D-06 5.153684402466D+03
    1.728000000000D+05 9.499490261078D-08-1.542793710682D+00 5.029141902924D-08
    9.596150059654D-01 2.414062500000D+02 1.007437923788D+00-8.153553913962D-09
    3.357282701443D-10 1.000000000000D+00 2.202000000000D+03 0.000000000000D+00
    2.000000000000D+00 0.000000000000D+00-1.117587089539D-08 7.500000000000D+01
    1.656180000000D+05 4.000000000000D+00
27 22  3 21 23 59 44.0 1.614945940673D-04 1.182343112305D-11 0.000000000000D+00
    2.000000000000D+01-8.150000000000D+01 4.553046795532D-09-1.836030213708D+00
   -4.343688488007D-06 1.043175708037D-02 3.645196557045D-06 5.153651325226D+03
    1.727840000000D+05 9.499490261078D-08 2.686237599550D+00-5.587935447693D-08
    9.731232418719D-01 3.118125000000D+02 6.550031240578D-01-8.279630594134D-09
   -1.403629895391D-10 1.000000000000D+00 2.202000000000D+03 0.000000000000D+00
    2.000000000000D+00 0.000000000000D+00 1.396983861923D-09 2.000000000000D+01
    1.656180000000D+05 4.000000000000D+00
11 22  3 22  0  0  0.0-5.818903446198D-05 7.958078640513D-12 0.000000000000D+00
    2.230000000000D+02-4.950000000000D+01 4.328751738457D-09-1.819014012892D+00
   -2.494081854820D-06 2.808228600770D-04 1.084245741367D-05 5.153789495468D+03
    1.728000000000D+05-1.117587089539D-08-2.493738881868D+00-5.215406417847D-08
    9.624880629654D-01 1.695625000000D+02 2.738794827489D+00-7.916401178456D-09
    8.178912113090D-11 1.000000000000D+00 2.202000000000D+03 0.000000000000D+00
    1.024000000000D+03 6.300000000000D+01-8.847564458847D-09 4.790000000000D+02
    1.656180000000D+05 4.000000000000D+00
17 22  3 22  0  0  0.0 5.902987904847D-04 5.002220859751D-12 0.000000000000D+00
    1.070000000000D+02-7.075000000000D+01 4.369467720155D-09-1.901191891153D+00
   -3.360211849213D-06 1.350090245251D-02 4.267320036888D-06 5.153776239395D+03
    1.728000000000D+05 1.620501279831D-07 2.748932943405D+00 3.241002559662D-07
    9.796079188419D-01 3.053125000000D+02-1.492788439465D+00-8.054978379324D-09
   -2.535819912792D-10 1.000000000000D+00 2.202000000000D+03 0.000000000000D+00
    2.000000000000D+00 0.000000000000D+00-1.117587089539D-08 1.070000000000D+02
    1.663380000000D+05 4.000000000000D+00
13 22  3 22  0  0  0.0 2.808216959238D-04 6.366462912410D-12 0.000000000000D+00
    1.300000000000D+01-4.465625000000D+01 4.392325815143D-09-2.333150165732D+00
   -2.248212695122D-06 5.830373964272D-03 7.800757884979D-06 5.153670051575D+03
    1.728000000000D+05 1.862645149231D-09-3.201171706908D-01-6.705522537231D-08
    9.689267896785D-01 2.338750000000D+02 9.424582801646D-01-7.892114452531D-09
   -4.250177036933D-10 1.000000000000D+00 2.202000000000D+03 0.000000000000D+00
    2.000000000000D+00 0.000000000000D+00-1.117587089539D-08 1.300000000000D+01
    1.681560000000D+05 4.000000000000D+00
19 22  3 22  0  0  0.0 1.341109164059D-04 5.002220859751D-12 0.000000000000D+00
    2.500000000000D+01-7.437500000000D+01 4.464471677451D-09 5.232111091342D-01
   -3.984197974205D-06 9.058870375156D-03 4.988163709641D-06 5.153688806534D+03
    1.728000000000D+05-1.490116119385D-08 2.793765476735D+00-8.940696716309D-08
    9.784149471841D-01 2.959062500000D+02 2.021498467480D+00-8.327489730516D-09
   -2.750114553310D-10 1.000000000000D+00 2.202000000000D+03 0.000000000000D+00
    2.000000000000D+00 0.000000000000D+00-1.583248376846D-08 2.500000000000D+01
    1.688580000000D+05 4.000000000000D+00
